CTC1_L_00410001-01
1 18846U 22965RO  26070.40836806  .00000000  00000+0  00000-0 0  9990
2 18846  45.0000   0.0000 0000000   0.0000   0.0000 12.77881384    18
CTC1_L_00410001-02
1 18847U 22307RU  26070.40836806  .00000000  00000+0  00000-0 0  9991
2 18847  45.0000   0.0000 0000000   0.0000  90.0000 12.77881384    18
CTC1_L_00410001-03
1 18848U 22276EP  26070.40836806  .00000000  00000+0  00000-0 0  9997
2 18848  45.0000   0.0000 0000000   0.0000 180.0000 12.77881384    19
CTC1_L_00410001-04
1 18849U 26131KL  26070.40836806  .00000000  00000+0  00000-0 0  9992
2 18849  45.0000   0.0000 0000000   0.0000 270.0000 12.77881384    10
CTC1_L_00410002-01
1 18850U 24881AZ  26070.40836806  .00000000  00000+0  00000-0 0  9994
2 18850  45.0000  12.0000 0000000   0.0000  12.0000 12.77881384    19
CTC1_L_00410002-02
1 18851U 25707CF  26070.40836806  .00000000  00000+0  00000-0 0  9993
2 18851  45.0000  12.0000 0000000   0.0000 102.0000 12.77881384    10
CTC1_L_00410002-03
1 18852U 26879SE  26070.40836806  .00000000  00000+0  00000-0 0  9995
2 18852  45.0000  12.0000 0000000   0.0000 192.0000 12.77881384    10
CTC1_L_00410002-04
1 18853U 23702YZ  26070.40836806  .00000000  00000+0  00000-0 0  9998
2 18853  45.0000  12.0000 0000000   0.0000 282.0000 12.77881384    11
CTC1_L_00410003-01
1 18854U 26611ZE  26070.40836806  .00000000  00000+0  00000-0 0  9991
2 18854  45.0000  24.0000 0000000   0.0000  24.0000 12.77881384    19
CTC1_L_00410003-02
1 18855U 23989TX  26070.40836806  .00000000  00000+0  00000-0 0  9997
2 18855  45.0000  24.0000 0000000   0.0000 114.0000 12.77881384    10
CTC1_L_00410003-03
1 18856U 24856JP  26070.40836806  .00000000  00000+0  00000-0 0  9992
2 18856  45.0000  24.0000 0000000   0.0000 204.0000 12.77881384    11
CTC1_L_00410003-04
1 18857U 23797JY  26070.40836806  .00000000  00000+0  00000-0 0  9996
2 18857  45.0000  24.0000 0000000   0.0000 294.0000 12.77881384    11
CTC1_L_00410004-01
1 18858U 24283LC  26070.40836806  .00000000  00000+0  00000-0 0  9998
2 18858  45.0000  36.0000 0000000   0.0000  36.0000 12.77881384    19
CTC1_L_00410004-02
1 18859U 22974SJ  26070.40836806  .00000000  00000+0  00000-0 0  9994
2 18859  45.0000  36.0000 0000000   0.0000 126.0000 12.77881384    10
CTC1_L_00410004-03
1 18860U 22917IA  26070.40836806  .00000000  00000+0  00000-0 0  9993
2 18860  45.0000  36.0000 0000000   0.0000 216.0000 12.77881384    12
CTC1_L_00410004-04
1 18861U 24062JY  26070.40836806  .00000000  00000+0  00000-0 0  9997
2 18861  45.0000  36.0000 0000000   0.0000 306.0000 12.77881384    13
CTC1_L_00410005-01
1 18862U 24525CT  26070.40836806  .00000000  00000+0  00000-0 0  9992
2 18862  45.0000  48.0000 0000000   0.0000  48.0000 12.77881384    10
CTC1_L_00410005-02
1 18863U 22952GR  26070.40836806  .00000000  00000+0  00000-0 0  9995
2 18863  45.0000  48.0000 0000000   0.0000 138.0000 12.77881384    11
CTC1_L_00410005-03
1 18864U 26663NT  26070.40836806  .00000000  00000+0  00000-0 0  9999
2 18864  45.0000  48.0000 0000000   0.0000 228.0000 12.77881384    12
CTC1_L_00410005-04
1 18865U 22673P   26070.40836806  .00000000  00000+0  00000-0 0  9997
2 18865  45.0000  48.0000 0000000   0.0000 318.0000 12.77881384    13
CTC1_L_00410006-01
1 18866U 22432NB  26070.40836806  .00000000  00000+0  00000-0 0  9991
2 18866  45.0000  60.0000 0000000   0.0000  60.0000 12.77881384    12
CTC1_L_00410006-02
1 18867U 22483Y   26070.40836806  .00000000  00000+0  00000-0 0  9998
2 18867  45.0000  60.0000 0000000   0.0000 150.0000 12.77881384    13
CTC1_L_00410006-03
1 18868U 26424QY  26070.40836806  .00000000  00000+0  00000-0 0  9998
2 18868  45.0000  60.0000 0000000   0.0000 240.0000 12.77881384    14
CTC1_L_00410006-04
1 18869U 23093VI  26070.40836806  .00000000  00000+0  00000-0 0  9998
2 18869  45.0000  60.0000 0000000   0.0000 330.0000 12.77881384    15
CTC1_L_00410007-01
1 18870U 23134SJ  26070.40836806  .00000000  00000+0  00000-0 0  9996
2 18870  45.0000  72.0000 0000000   0.0000  72.0000 12.77881384    13
CTC1_L_00410007-02
1 18871U 22638HF  26070.40836806  .00000000  00000+0  00000-0 0  9995
2 18871  45.0000  72.0000 0000000   0.0000 162.0000 12.77881384    14
CTC1_L_00410007-03
1 18872U 26777CD  26070.40836806  .00000000  00000+0  00000-0 0  9994
2 18872  45.0000  72.0000 0000000   0.0000 252.0000 12.77881384    15
CTC1_L_00410007-04
1 18873U 26044ZE  26070.40836806  .00000000  00000+0  00000-0 0  9992
2 18873  45.0000  72.0000 0000000   0.0000 342.0000 12.77881384    16
CTC1_L_00410008-01
1 18874U 25670PQ  26070.40836806  .00000000  00000+0  00000-0 0  9997
2 18874  45.0000  84.0000 0000000   0.0000  84.0000 12.77881384    13
CTC1_L_00410008-02
1 18875U 24874VD  26070.40836806  .00000000  00000+0  00000-0 0  9993
2 18875  45.0000  84.0000 0000000   0.0000 174.0000 12.77881384    14
CTC1_L_00410008-03
1 18876U 25991NB  26070.40836806  .00000000  00000+0  00000-0 0  9995
2 18876  45.0000  84.0000 0000000   0.0000 264.0000 12.77881384    15
CTC1_L_00410008-04
1 18877U 26493IE  26070.40836806  .00000000  00000+0  00000-0 0  9994
2 18877  45.0000  84.0000 0000000   0.0000 354.0000 12.77881384    16
CTC1_L_00410009-01
1 18878U 24388FD  26070.40836806  .00000000  00000+0  00000-0 0  9996
2 18878  45.0000  96.0000 0000000   0.0000  96.0000 12.77881384    13
CTC1_L_00410009-02
1 18879U 26278VK  26070.40836806  .00000000  00000+0  00000-0 0  9997
2 18879  45.0000  96.0000 0000000   0.0000 186.0000 12.77881384    14
CTC1_L_00410009-03
1 18880U 25241AK  26070.40836806  .00000000  00000+0  00000-0 0  9998
2 18880  45.0000  96.0000 0000000   0.0000 276.0000 12.77881384    16
CTC1_L_00410009-04
1 18881U 24447GK  26070.40836806  .00000000  00000+0  00000-0 0  9996
2 18881  45.0000  96.0000 0000000   0.0000   6.0000 12.77881384    18
CTC1_L_00410010-01
1 18882U 25682RY  26070.40836806  .00000000  00000+0  00000-0 0  9999
2 18882  45.0000 108.0000 0000000   0.0000 108.0000 12.77881384    16
CTC1_L_00410010-02
1 18883U 26570RO  26070.40836806  .00000000  00000+0  00000-0 0  9997
2 18883  45.0000 108.0000 0000000   0.0000 198.0000 12.77881384    16
CTC1_L_00410010-03
1 18884U 22789EG  26070.40836806  .00000000  00000+0  00000-0 0  9996
2 18884  45.0000 108.0000 0000000   0.0000 288.0000 12.77881384    17
CTC1_L_00410010-04
1 18885U 24338XI  26070.40836806  .00000000  00000+0  00000-0 0  9999
2 18885  45.0000 108.0000 0000000   0.0000  18.0000 12.77881384    19
CTC1_L_00410011-01
1 18886U 23808U   26070.40836806  .00000000  00000+0  00000-0 0  9991
2 18886  45.0000 120.0000 0000000   0.0000 120.0000 12.77881384    18
CTC1_L_00410011-02
1 18887U 22359OP  26070.40836806  .00000000  00000+0  00000-0 0  9992
2 18887  45.0000 120.0000 0000000   0.0000 210.0000 12.77881384    19
CTC1_L_00410011-03
1 18888U 22784VW  26070.40836806  .00000000  00000+0  00000-0 0  9995
2 18888  45.0000 120.0000 0000000   0.0000 300.0000 12.77881384    10
CTC1_L_00410011-04
1 18889U 25557XM  26070.40836806  .00000000  00000+0  00000-0 0  9997
2 18889  45.0000 120.0000 0000000   0.0000  30.0000 12.77881384    11
CTC1_L_00410012-01
1 18890U 22881LQ  26070.40836806  .00000000  00000+0  00000-0 0  9996
2 18890  45.0000 132.0000 0000000   0.0000 132.0000 12.77881384    19
CTC1_L_00410012-02
1 18891U 24048WQ  26070.40836806  .00000000  00000+0  00000-0 0  9994
2 18891  45.0000 132.0000 0000000   0.0000 222.0000 12.77881384    10
CTC1_L_00410012-03
1 18892U 26144JC  26070.40836806  .00000000  00000+0  00000-0 0  9994
2 18892  45.0000 132.0000 0000000   0.0000 312.0000 12.77881384    11
CTC1_L_00410012-04
1 18893U 26925ZI  26070.40836806  .00000000  00000+0  00000-0 0  9992
2 18893  45.0000 132.0000 0000000   0.0000  42.0000 12.77881384    12
CTC1_L_00410013-01
1 18894U 23613FG  26070.40836806  .00000000  00000+0  00000-0 0  9994
2 18894  45.0000 144.0000 0000000   0.0000 144.0000 12.77881384    19
CTC1_L_00410013-02
1 18895U 23185FZ  26070.40836806  .00000000  00000+0  00000-0 0  9999
2 18895  45.0000 144.0000 0000000   0.0000 234.0000 12.77881384    10
CTC1_L_00410013-03
1 18896U 25484DO  26070.40836806  .00000000  00000+0  00000-0 0  9994
2 18896  45.0000 144.0000 0000000   0.0000 324.0000 12.77881384    11
CTC1_L_00410013-04
1 18897U 23504EI  26070.40836806  .00000000  00000+0  00000-0 0  9996
2 18897  45.0000 144.0000 0000000   0.0000  54.0000 12.77881384    12
CTC1_L_00410014-01
1 18898U 24199FY  26070.40836806  .00000000  00000+0  00000-0 0  9998
2 18898  45.0000 156.0000 0000000   0.0000 156.0000 12.77881384    19
CTC1_L_00410014-02
1 18899U 25127ST  26070.40836806  .00000000  00000+0  00000-0 0  9991
2 18899  45.0000 156.0000 0000000   0.0000 246.0000 12.77881384    10
CTC1_L_00410014-03
1 18900U 24065VN  26070.40836806  .00000000  00000+0  00000-0 0  9994
2 18900  45.0000 156.0000 0000000   0.0000 336.0000 12.77881384    13
CTC1_L_00410014-04
1 18901U 24924ZZ  26070.40836806  .00000000  00000+0  00000-0 0  9999
2 18901  45.0000 156.0000 0000000   0.0000  66.0000 12.77881384    14
CTC1_L_00410015-01
1 18902U 22188KJ  26070.40836806  .00000000  00000+0  00000-0 0  9990
2 18902  45.0000 168.0000 0000000   0.0000 168.0000 12.77881384    11
CTC1_L_00410015-02
1 18903U 26779FB  26070.40836806  .00000000  00000+0  00000-0 0  9991
2 18903  45.0000 168.0000 0000000   0.0000 258.0000 12.77881384    12
CTC1_L_00410015-03
1 18904U 26055GV  26070.40836806  .00000000  00000+0  00000-0 0  9999
2 18904  45.0000 168.0000 0000000   0.0000 348.0000 12.77881384    13
CTC1_L_00410015-04
1 18905U 23231ZB  26070.40836806  .00000000  00000+0  00000-0 0  9993
2 18905  45.0000 168.0000 0000000   0.0000  78.0000 12.77881384    14
CTC1_L_00410016-01
1 18906U 26834ZH  26070.40836806  .00000000  00000+0  00000-0 0  9996
2 18906  45.0000 180.0000 0000000   0.0000 180.0000 12.77881384    13
CTC1_L_00410016-02
1 18907U 22722FP  26070.40836806  .00000000  00000+0  00000-0 0  9999
2 18907  45.0000 180.0000 0000000   0.0000 270.0000 12.77881384    14
